0 PEGASUS DEB
1 24978U 94029ACL 13281.89158965  .00009254  00000-0  13682-2 0  7507
2 24978 081.4510 331.9506 0404685 277.6597 077.8816 14.32114023880372
0 PEGASUS DEB
1 24978U 94029ACL 13283.84783387  .00008537  00000-0  12618-2 0  7518
2 24978 081.4512 330.0151 0404579 271.8476 083.6427 14.32142006880650
0 PEGASUS DEB
1 24978U 94029ACL 13285.52459382  .00006606  00000-0  97583-3 0  7521
2 24978 081.4511 328.3569 0404516 266.8617 088.6223 14.32161838880893
0 PEGASUS DEB
1 24978U 94029ACL 13287.83010925  .00009605  00000-0  14182-2 0  7539
2 24978 081.4512 326.0764 0404505 260.0164 095.5153 14.32193307881220
0 PEGASUS DEB
1 24978U 94029ACL 13291.81224809  .00008255  00000-0  12161-2 0  7546
2 24978 081.4470 322.1394 0404552 248.2007 107.5683 14.32258242881799
0 PEGASUS DEB
1 24978U 94029ACL 13293.83819849  .00008727  00000-0  12858-2 0  7552
2 24978 081.4491 320.1311 0404365 242.1596 113.8072 14.32288343882087
